      'CREATION_DATE': '2020-06-21 10:06:09',
      'ORIGINATOR': '18 SPCS',
      'OBJECT_NAME': 'STARLINK-1104',
      'OBJECT_ID': '2020-001J',
      'CENTER_NAME': 'EARTH',
      'REF_FRAME': 'TEME',
      'TIME_SYSTEM': 'UTC',
      'MEAN_ELEMENT_THEORY': 'SGP4',
      'EPOCH': '2020-06-21 08:00:01.999872',
      'MEAN_MOTION': 15.05546265,
      'ECCENTRICITY': 0.0001382,
      'INCLINATION': 52.999,
      'RA_OF_ASC_NODE': 357.1211,
      'ARG_OF_PERICENTER': 109.5316,
      'MEAN_ANOMALY': 224.0276,
      'EPHEMERIS_TYPE': 0,
      'CLASSIFICATION_TYPE': 'U',
      'NORAD_CAT_ID': 44922,
      'ELEMENT_SET_NO': 999,
      'REV_AT_EPOCH': 2524,
      'BSTAR': 0.0021,
      'MEAN_MOTION_DOT': 0.0003045,
      'MEAN_MOTION_DDOT': 0,
      'SEMIMAJOR_AXIS': 6927.966,
      'PERIOD': 95.646,
      'APOAPSIS': 550.788,
      'PERIAPSIS': 548.873,
      'OBJECT_TYPE': 'PAYLOAD',
      'RCS_SIZE': 'LARGE',
      'COUNTRY_CODE': 'US',
      'LAUNCH_DATE': '2020-01-07',
      'SITE': 'AFETR',
      'DECAY_DATE': null,
      'DECAYED': 0,
      'FILE': 2770047,
      'GP_ID': 156071152,
      'TLE_LINE0': '0 STARLINK-1104',
      'TLE_LINE1':
          '1 44922U 20001J   20173.33335648  .00030450  00000-0  21019-2 0  9999',
      'TLE_LINE2':
          '2 44922  52.9991 357.1211 0001382 109.5316 224.0276 15.05546265 25242'
    },
    'version': 'v1.0',
    'launch': '5eb87d3cffd86e000604b380',
    'id': '5eed7714096e590006985683'
  },
  {
    'spaceTrack': {
      'CCSDS_OMM_VERS': '2.0',
      'COMMENT': 'GENERATED VIA SPACE-TRACK.ORG API',
      'CREATION_DATE': '2020-06-21 10:06:09',
      'ORIGINATOR': '18 SPCS',
      'OBJECT_NAME': 'STARLINK-1043',
      'OBJECT_ID': '2019-074AM',
      'CENTER_NAME': 'EARTH',
      'REF_FRAME': 'TEME',
      'TIME_SYSTEM': 'UTC',
      'MEAN_ELEMENT_THEORY': 'SGP4',
      'EPOCH': '2020-06-21 08:00:01.999872',
      'MEAN_MOTION': 15.05587754,
      'ECCENTRICITY': 0.0001006,
      'INCLINATION': 53.001,
      'RA_OF_ASC_NODE': 237.1214,
      'ARG_OF_PERICENTER': 105.9919,
      'MEAN_ANOMALY': 348.3004,
      'EPHEMERIS_TYPE': 0,
      'CLASSIFICATION_TYPE': 'U',
      'NORAD_CAT_ID': 44748,
      'ELEMENT_SET_NO': 999,
      'REV_AT_EPOCH': 3376,
      'BSTAR': -0.00225,
      'MEAN_MOTION_DOT': -0.00032965,
      'MEAN_MOTION_DDOT': 0,
      'SEMIMAJOR_AXIS': 6927.839,
      'PERIOD': 95.643,
      'APOAPSIS': 550.401,
      'PERIAPSIS': 549.007,
      'OBJECT_TYPE': 'PAYLOAD',
      'RCS_SIZE': 'LARGE',
      'COUNTRY_CODE': 'US',
      'LAUNCH_DATE': '2019-11-11',
      'SITE': 'AFETR',
      'DECAY_DATE': null,
      'DECAYED': 0,
      'FILE': 2770043,
      'GP_ID': 156071264,
      'TLE_LINE0': '0 STARLINK-1043',
      'TLE_LINE1':
          '1 44748U 19074AM  20173.33335648 -.00032965  00000-0 -22534-2 0  9991',
      'TLE_LINE2':
          '2 44748  53.0012 237.1214 0001006 105.9919 348.3004 15.05587754 33769'
    },
    'version': 'v1.0',
    'launch': '5eb87d39ffd86e000604b37d',
    'id': '5eed7714096e590006985684'
  },
  {
    'spaceTrack': {
      'CCSDS_OMM_VERS': '2.0',
      'COMMENT': 'GENERATED VIA SPACE-TRACK.ORG API',
      'CREATION_DATE': '2020-06-21 10:06:09',
      'ORIGINATOR': '18 SPCS',
      'OBJECT_NAME': 'STARLINK-1102',
      'OBJECT_ID': '2020-001G',
      'CENTER_NAME': 'EARTH',
      'REF_FRAME': 'TEME',
      'TIME_SYSTEM': 'UTC',
      'MEAN_ELEMENT_THEORY': 'SGP4',
      'EPOCH': '2020-06-21 08:00:01.999872',
      'MEAN_MOTION': 15.05548071,
      'ECCENTRICITY': 0.0001443,
      'INCLINATION': 53,
      'RA_OF_ASC_NODE': 357.1238,
      'ARG_OF_PERICENTER': 105.4687,
      'MEAN_ANOMALY': 155.9957,
      'EPHEMERIS_TYPE': 0,
      'CLASSIFICATION_TYPE': 'U',
      'NORAD_CAT_ID': 44920,
      'ELEMENT_SET_NO': 999,
      'REV_AT_EPOCH': 2524,
      'BSTAR': 0.00195,
      'MEAN_MOTION_DOT': 0.00028289,
      'MEAN_MOTION_DDOT': 0,
      'SEMIMAJOR_AXIS': 6927.96,
      'PERIOD': 95.646,
      'APOAPSIS': 550.825,
      'PERIAPSIS': 548.826,
      'OBJECT_TYPE': 'PAYLOAD',
      'RCS_SIZE': 'LARGE',
      'COUNTRY_CODE': 'US',
      'LAUNCH_DATE': '2020-01-07',
      'SITE': 'AFETR',
      'DECAY_DATE': null,
      'DECAYED': 0,
      'FILE': 2770046,
      'GP_ID': 156071149,
      'TLE_LINE0': '0 STARLINK-1102',
      'TLE_LINE1':
          '1 44920U 20001G   20173.33335648  .00028289  00000-0  19546-2 0  9996',
      'TLE_LINE2':
          '2 44920  52.9999 357.1238 0001443 105.4687 155.9957 15.05548071 25246'
    },
    'version': 'v1.0',
    'launch': '5eb87d3cffd86e000604b380',
    'id': '5eed7714096e590006985685'
  },
  {
    'spaceTrack': {
      'CCSDS_OMM_VERS': '2.0',
      'COMMENT': 'GENERATED VIA SPACE-TRACK.ORG API',
      'CREATION_DATE': '2020-06-21 10:06:09',
      'ORIGINATOR': '18 SPCS',
      'OBJECT_NAME': 'STARLINK-1114',
      'OBJECT_ID': '2020-001P',
      'CENTER_NAME': 'EARTH',
      'REF_FRAME': 'TEME',
      'TIME_SYSTEM': 'UTC',
      'MEAN_ELEMENT_THEORY': 'SGP4',
      'EPOCH': '2020-06-21 08:00:01.999872',
      'MEAN_MOTION': 15.05563946,
      'ECCENTRICITY': 0.0001426,
      'INCLINATION': 52.999,
      'RA_OF_ASC_NODE': 357.1218,
      'ARG_OF_PERICENTER': 110.2457,
      'MEAN_ANOMALY': 349.221,
      'EPHEMERIS_TYPE': 0,
      'CLASSIFICATION_TYPE': 'U',
      'NORAD_CAT_ID': 44927,
      'ELEMENT_SET_NO': 999,
      'REV_AT_EPOCH': 2525,
      'BSTAR': 0.00189,
      'MEAN_MOTION_DOT': 0.00027341,
      'MEAN_MOTION_DDOT': 0,
      'SEMIMAJOR_AXIS': 6927.912,
      'PERIOD': 95.645,
      'APOAPSIS': 550.765,
      'PERIAPSIS': 548.789,
      'OBJECT_TYPE': 'PAYLOAD',
      'RCS_SIZE': 'LARGE',
      'COUNTRY_CODE': 'US',
      'LAUNCH_DATE': '2020-01-07',
      'SITE': 'AFETR',
      'DECAY_DATE': null,
      'DECAYED': 0,
      'FILE': 2770047,
      'GP_ID': 156071151,
      'TLE_LINE0': '0 STARLINK-1114',
      'TLE_LINE1':
          '1 44927U 20001P   20173.33335648  .00027341  00000-0  18892-2 0  9994',
      'TLE_LINE2':
          '2 44927  52.9986 357.1218 0001426 110.2457 349.2210 15.05563946 25256'
    },
    'version': 'v1.0',
    'launch': '5eb87d3cffd86e000604b380',
    'id': '5eed7714096e590006985686'
  },
  {
    'spaceTrack': {
      'CCSDS_OMM_VERS': '2.0',
      'COMMENT': 'GENERATED VIA SPACE-TRACK.ORG API',
      'CREATION_DATE': '2020-06-21 10:06:09',
      'ORIGINATOR': '18 SPCS',
      'OBJECT_NAME': 'STARLINK-1078',
      'OBJECT_ID': '2020-001Y',
      'CENTER_NAME': 'EARTH',
      'REF_FRAME': 'TEME',
      'TIME_SYSTEM': 'UTC',
      'MEAN_ELEMENT_THEORY': 'SGP4',
      'EPOCH': '2020-06-21 08:00:01.999872',
      'MEAN_MOTION': 15.0557679,
      'ECCENTRICITY': 0.0001298,
      'INCLINATION': 52.999,
      'RA_OF_ASC_NODE': 337.1212,
      'ARG_OF_PERICENTER': 108.0939,
      'MEAN_ANOMALY': 137.5888,
      'EPHEMERIS_TYPE': 0,
      'CLASSIFICATION_TYPE': 'U',
      'NORAD_CAT_ID': 44936,
      'ELEMENT_SET_NO': 999,
      'REV_AT_EPOCH': 2552,
      'BSTAR': 0.00288,
      'MEAN_MOTION_DOT': 0.0004197,
      'MEAN_MOTION_DDOT': 0,
      'SEMIMAJOR_AXIS': 6927.872,
      'PERIOD': 95.644,
      'APOAPSIS': 550.636,
      'PERIAPSIS': 548.838,
      'OBJECT_TYPE': 'PAYLOAD',
      'RCS_SIZE': 'LARGE',
      'COUNTRY_CODE': 'US',
      'LAUNCH_DATE': '2020-01-07',
      'SITE': 'AFETR',
      'DECAY_DATE': null,
      'DECAYED': 0,
      'FILE': 2770046,
      'GP_ID': 156071278,
      'TLE_LINE0': '0 STARLINK-1078',
      'TLE_LINE1':
          '1 44936U 20001Y   20173.33335648  .00041970  00000-0  28828-2 0  9998',
      'TLE_LINE2':
          '2 44936  52.9991 337.1212 0001298 108.0939 137.5888 15.05576790 25521'
    },
    'version': 'v1.0',
    'launch': '5eb87d3cffd86e000604b380',
    'id': '5eed7714096e590006985687'
  },
  {
    'spaceTrack': {
      'CCSDS_OMM_VERS': '2.0',
      'COMMENT': 'GENERATED VIA SPACE-TRACK.ORG API',
      'CREATION_DATE': '2020-06-21 10:06:09',
      'ORIGINATOR': '18 SPCS',
      'OBJECT_NAME': 'STARLINK-1111',
      'OBJECT_ID': '2020-001L',
      'CENTER_NAME': 'EARTH',
      'REF_FRAME': 'TEME',
      'TIME_SYSTEM': 'UTC',
      'MEAN_ELEMENT_THEORY': 'SGP4',
      'EPOCH': '2020-06-21 08:00:01.999872',
      'MEAN_MOTION': 15.05559661,
      'ECCENTRICITY': 0.0001482,
      'INCLINATION': 53,
      'RA_OF_ASC_NODE': 357.1248,
      'ARG_OF_PERICENTER': 112.6248,
      'MEAN_ANOMALY': 130.9182,
      'EPHEMERIS_TYPE': 0,
      'CLASSIFICATION_TYPE': 'U',
      'NORAD_CAT_ID': 44924,
      'ELEMENT_SET_NO': 999,
      'REV_AT_EPOCH': 2524,
      'BSTAR': 0.00198,
      'MEAN_MOTION_DOT': 0.00028637,
      'MEAN_MOTION_DDOT': 0,
      'SEMIMAJOR_AXIS': 6927.925,
      'PERIOD': 95.645,
      'APOAPSIS': 550.816,
      'PERIAPSIS': 548.763,
      'OBJECT_TYPE': 'PAYLOAD',
      'RCS_SIZE': 'LARGE',
      'COUNTRY_CODE': 'US',
      'LAUNCH_DATE': '2020-01-07',
      'SITE': 'AFETR',
      'DECAY_DATE': null,
      'DECAYED': 0,
      'FILE': 2770047,
      'GP_ID': 156071300,
      'TLE_LINE0': '0 STARLINK-1111',
      'TLE_LINE1':
          '1 44924U 20001L   20173.33335648  .00028637  00000-0  19777-2 0  9993',
      'TLE_LINE2':
          '2 44924  52.9995 357.1248 0001482 112.6248 130.9182 15.05559661 25243'
    },
    'version': 'v1.0',
    'launch': '5eb87d3cffd86e000604b380',
    'id': '5eed7714096e590006985688'
  },
  {
    'spaceTrack': {
      'CCSDS_OMM_VERS': '2.0',
      'COMMENT': 'GENERATED VIA SPACE-TRACK.ORG API',
      'CREATION_DATE': '2020-06-21 03:47:55',
      'ORIGINATOR': '18 SPCS',
      'OBJECT_NAME': 'STARLINK-1097',
      'OBJECT_ID': '2020-001C',
      'CENTER_NAME': 'EARTH',
      'REF_FRAME': 'TEME',
      'TIME_SYSTEM': 'UTC',
      'MEAN_ELEMENT_THEORY': 'SGP4',
      'EPOCH': '2020-06-20 22:00:01.999584',
      'MEAN_MOTION': 15.05557521,
      'ECCENTRICITY': 0.0001511,
      'INCLINATION': 53,
      'RA_OF_ASC_NODE': 358.997,
      'ARG_OF_PERICENTER': 102.3797,
      'MEAN_ANOMALY': 167.5023,
      'EPHEMERIS_TYPE': 0,
      'CLASSIFICATION_TYPE': 'U',
      'NORAD_CAT_ID': 44916,
